[{"OBJECT_NAME":"STARLINK-2666","OBJECT_ID":"2021-044AE","EPOCH":"2026-03-09T09:41:56.845824","MEAN_MOTION":15.06412995,"ECCENTRICITY":0.00014416,"INCLINATION":53.0551,"RA_OF_ASC_NODE":113.3735,"ARG_OF_PERICENTER":97.7439,"MEAN_ANOMALY":262.3713,"EPHEMERIS_TYPE":0,"CLASSIFICATION_TYPE":"U","NORAD_CAT_ID":48666,"ELEMENT_SET_NO":999,"REV_AT_EPOCH":26379,"BSTAR":8.8652646e-5,"MEAN_MOTION_DOT":1.04e-5,"MEAN_MOTION_DDOT":0},{"OBJECT_NAME":"FTV 3502","OBJECT_ID":"1962-039A","EPOCH":"2026-03-09T21:41:26.705184","MEAN_MOTION":14.91961609,"ECCENTRICITY":0.00806549,"INCLINATION":98.4622,"RA_OF_ASC_NODE":145.9901,"ARG_OF_PERICENTER":91.4356,"MEAN_ANOMALY":269.6102,"EPHEMERIS_TYPE":0,"CLASSIFICATION_TYPE":"U","NORAD_CAT_ID":369,"ELEMENT_SET_NO":999,"REV_AT_EPOCH":40080,"BSTAR":0.00025514942,"MEAN_MOTION_DOT":2.681e-5,"MEAN_MOTION_DDOT":0}]
